FFLY01                  
1 65320U 25188F   25334.15786456  .00003309  00000+0  32509-3 0  9995
2 65320  97.7602  47.5156 0012831 112.5190 247.7388 14.92776102 14217
LEAP-1                  
1 65321U 25188G   25334.20451069  .00003774  00000+0  39463-3 0  9993
2 65321  97.7593  47.2935 0004062 133.2334 226.9224 14.90241446 14209
FFLY02                  
1 65322U 25188H   25334.20641993  .00002443  00000+0  24144-3 0  9993
2 65322  97.7588  47.5910 0014934  68.4404 291.8405 14.92759840 14224
SHIYAN-29               
1 65486U 25196A   25331.65709735 -.00000251  00000+0  00000+0 0  9995
2 65486  28.6004  21.0754 0010210 184.0120 192.3644  1.00260414   861
2025-197A               
1 65488U 25197A   25334.13594701  .00005143  00000+0  32483-3 0  9997
2 65488  97.4063 157.9254 0014510 351.7328   8.3660 15.09404810 12980
2025-197B               
1 65489U 25197B   25334.19297294  .00006819  00000+0  31077-3 0  9990
2 65489  97.4070 158.6039 0013758 353.3009   6.8040 15.20895514 13024
2025-197C               
1 65490U 25197C   25334.15347492  .00006107  00000+0  26823-3 0  9997
2 65490  97.4072 158.6590 0015065 355.5669   4.5431 15.22186506 13013
YAOGAN-40 03A           
1 65544U 25199A   25334.20532714  .00000244  00000+0  93411-4 0  9992
2 65544  85.9877 132.5784 0013305 355.2215   4.8846 14.26331725 12057
