{
  "type": "FeatureCollection",
  "features": [
    {
      "type": "Feature",
      "properties": {
        "OBJECT_NAME": "FFLY01",
        "OBJECT_ID": "2025-188F",
        "EPOCH": "2025-11-30T03:47:19.497984",
        "MEAN_MOTION": 14.92776102,
        "ECCENTRICITY": 0.0012831,
        "INCLINATION": 97.7602,
        "RA_OF_ASC_NODE": 47.5156,
        "ARG_OF_PERICENTER": 112.519,
        "MEAN_ANOMALY": 247.7388,
        "EPHEMERIS_TYPE": 0,
        "CLASSIFICATION_TYPE": "U",
        "NORAD_CAT_ID": 65320,
        "ELEMENT_SET_NO": 999,
        "REV_AT_EPOCH": 1421,
        "BSTAR": 0.00032509,
        "MEAN_MOTION_DOT": 3.309e-05,
        "MEAN_MOTION_DDOT": 0,
        "norad_id": 65320,
        "name": "FFLY01",
        "group": "active",
        "longitude_deg": NaN,
        "latitude_deg": NaN,
        "alt_km": NaN,
        "orbit_class": "HEO",
        "timestamp": "2025-11-30T09:33:02.585485+00:00"
      },
      "geometry": {
        "type": "Point",
        "coordinates": [
          NaN,
          NaN
        ]
      }
    },
    {
      "type": "Feature",
      "properties": {
        "OBJECT_NAME": "LEAP-1",
        "OBJECT_ID": "2025-188G",
        "EPOCH": "2025-11-30T04:54:29.723616",
        "MEAN_MOTION": 14.90241446,
        "ECCENTRICITY": 0.0004062,
        "INCLINATION": 97.7593,
        "RA_OF_ASC_NODE": 47.2935,
        "ARG_OF_PERICENTER": 133.2334,
        "MEAN_ANOMALY": 226.9224,
        "EPHEMERIS_TYPE": 0,
        "CLASSIFICATION_TYPE": "U",
        "NORAD_CAT_ID": 65321,
        "ELEMENT_SET_NO": 999,
        "REV_AT_EPOCH": 1420,
        "BSTAR": 0.00039463,
        "MEAN_MOTION_DOT": 3.774e-05,
        "MEAN_MOTION_DDOT": 0,
        "norad_id": 65321,
        "name": "LEAP-1",
        "group": "active",
        "longitude_deg": NaN,
        "latitude_deg": NaN,
        "alt_km": NaN,
        "orbit_class": "HEO",
        "timestamp": "2025-11-30T09:33:02.585502+00:00"
      },
      "geometry": {
        "type": "Point",
        "coordinates": [
          NaN,
          NaN
        ]
      }
    },
    {
      "type": "Feature",
      "properties": {
        "OBJECT_NAME": "FFLY02",
        "OBJECT_ID": "2025-188H",
        "EPOCH": "2025-11-30T04:57:14.681952",
        "MEAN_MOTION": 14.9275984,
        "ECCENTRICITY": 0.0014934,
        "INCLINATION": 97.7588,
        "RA_OF_ASC_NODE": 47.591,
        "ARG_OF_PERICENTER": 68.4404,
        "MEAN_ANOMALY": 291.8405,
        "EPHEMERIS_TYPE": 0,
        "CLASSIFICATION_TYPE": "U",
        "NORAD_CAT_ID": 65322,
        "ELEMENT_SET_NO": 999,
        "REV_AT_EPOCH": 1422,
        "BSTAR": 0.00024144,
        "MEAN_MOTION_DOT": 2.443e-05,
        "MEAN_MOTION_DDOT": 0,
        "norad_id": 65322,
        "name": "FFLY02",
        "group": "active",
        "longitude_deg": NaN,
        "latitude_deg": NaN,
        "alt_km": NaN,
        "orbit_class": "HEO",
        "timestamp": "2025-11-30T09:33:02.585508+00:00"
      },
      "geometry": {
        "type": "Point",
        "coordinates": [
          NaN,
          NaN
        ]
      }
    },
    {
      "type": "Feature",
      "properties": {
        "OBJECT_NAME": "SHIYAN-29",
        "OBJECT_ID": "2025-196A",
        "EPOCH": "2025-11-27T15:46:13.211040",
        "MEAN_MOTION": 1.00260414,
        "ECCENTRICITY": 0.00102103,
        "INCLINATION": 28.6004,
        "RA_OF_ASC_NODE": 21.0754,
        "ARG_OF_PERICENTER": 184.012,
        "MEAN_ANOMALY": 192.3644,
        "EPHEMERIS_TYPE": 0,
        "CLASSIFICATION_TYPE": "U",
        "NORAD_CAT_ID": 65486,
        "ELEMENT_SET_NO": 999,
        "REV_AT_EPOCH": 86,
        "BSTAR": 0,
        "MEAN_MOTION_DOT": -2.51e-06,
        "MEAN_MOTION_DDOT": 0,
        "norad_id": 65486,
        "name": "SHIYAN-29",
        "group": "active",
        "longitude_deg": NaN,
        "latitude_deg": NaN,
        "alt_km": NaN,
        "orbit_class": "HEO",
        "timestamp": "2025-11-30T09:33:02.586663+00:00"
      },
      "geometry": {
        "type": "Point",
        "coordinates": [
          NaN,
          NaN
        ]
      }
    },
    {
      "type": "Feature",
      "properties": {
        "OBJECT_NAME": "2025-197A",
        "OBJECT_ID": "2025-197A",
        "EPOCH": "2025-11-30T03:15:45.821664",
        "MEAN_MOTION": 15.0940481,
        "ECCENTRICITY": 0.001451,
        "INCLINATION": 97.4063,
        "RA_OF_ASC_NODE": 157.9254,
        "ARG_OF_PERICENTER": 351.7328,
        "MEAN_ANOMALY": 8.366,
        "EPHEMERIS_TYPE": 0,
        "CLASSIFICATION_TYPE": "U",
        "NORAD_CAT_ID": 65488,
        "ELEMENT_SET_NO": 999,
        "REV_AT_EPOCH": 1298,
        "BSTAR": 0.00032483,
        "MEAN_MOTION_DOT": 5.143e-05,
        "MEAN_MOTION_DDOT": 0,
        "norad_id": 65488,
        "name": "2025-197A",
        "group": "active",
        "longitude_deg": NaN,
        "latitude_deg": NaN,
        "alt_km": NaN,
        "orbit_class": "HEO",
        "timestamp": "2025-11-30T09:33:02.586670+00:00"
      },
      "geometry": {
        "type": "Point",
        "coordinates": [
          NaN,
          NaN
        ]
      }
    },
    {
      "type": "Feature",
      "properties": {
        "OBJECT_NAME": "2025-197B",
        "OBJECT_ID": "2025-197B",
        "EPOCH": "2025-11-30T04:37:52.862016",
        "MEAN_MOTION": 15.20895514,
        "ECCENTRICITY": 0.0013758,
        "INCLINATION": 97.407,
        "RA_OF_ASC_NODE": 158.6039,
        "ARG_OF_PERICENTER": 353.3009,
        "MEAN_ANOMALY": 6.804,
        "EPHEMERIS_TYPE": 0,
        "CLASSIFICATION_TYPE": "U",
        "NORAD_CAT_ID": 65489,
        "ELEMENT_SET_NO": 999,
        "REV_AT_EPOCH": 1302,
        "BSTAR": 0.00031077,
        "MEAN_MOTION_DOT": 6.819e-05,
        "MEAN_MOTION_DDOT": 0,
        "norad_id": 65489,
        "name": "2025-197B",
        "group": "active",
        "longitude_deg": NaN,
        "latitude_deg": NaN,
        "alt_km": NaN,
        "orbit_class": "HEO",
        "timestamp": "2025-11-30T09:33:02.586678+00:00"
      },
      "geometry": {
        "type": "Point",
        "coordinates": [
          NaN,
          NaN
        ]
      }
    },
    {
      "type": "Feature",
      "properties": {
        "OBJECT_NAME": "2025-197C",
        "OBJECT_ID": "2025-197C",
        "EPOCH": "2025-11-30T03:41:00.233088",
        "MEAN_MOTION": 15.22186506,
        "ECCENTRICITY": 0.0015065,
        "INCLINATION": 97.4072,
        "RA_OF_ASC_NODE": 158.659,
        "ARG_OF_PERICENTER": 355.5669,
        "MEAN_ANOMALY": 4.5431,
        "EPHEMERIS_TYPE": 0,
        "CLASSIFICATION_TYPE": "U",
        "NORAD_CAT_ID": 65490,
        "ELEMENT_SET_NO": 999,
        "REV_AT_EPOCH": 1301,
        "BSTAR": 0.00026823,
        "MEAN_MOTION_DOT": 6.107e-05,
        "MEAN_MOTION_DDOT": 0,
        "norad_id": 65490,
        "name": "2025-197C",
        "group": "active",
        "longitude_deg": NaN,
        "latitude_deg": NaN,
        "alt_km": NaN,
        "orbit_class": "HEO",
        "timestamp": "2025-11-30T09:33:02.586686+00:00"
      },
      "geometry": {
        "type": "Point",
        "coordinates": [
          NaN,
          NaN
        ]
      }
    },
    {
      "type": "Feature",
      "properties": {
        "OBJECT_NAME": "YAOGAN-40 03A",
        "OBJECT_ID": "2025-199A",
        "EPOCH": "2025-11-30T04:55:40.264896",
        "MEAN_MOTION": 14.26331725,
        "ECCENTRICITY": 0.0013305,
        "INCLINATION": 85.9877,
        "RA_OF_ASC_NODE": 132.5784,
        "ARG_OF_PERICENTER": 355.2215,
        "MEAN_ANOMALY": 4.8846,
        "EPHEMERIS_TYPE": 0,
        "CLASSIFICATION_TYPE": "U",
        "NORAD_CAT_ID": 65544,
        "ELEMENT_SET_NO": 999,
        "REV_AT_EPOCH": 1205,
        "BSTAR": 9.3411e-05,
        "MEAN_MOTION_DOT": 2.44e-06,
        "MEAN_MOTION_DDOT": 0,
        "norad_id": 65544,
        "name": "YAOGAN-40 03A",
        "group": "active",
        "longitude_deg": NaN,
        "latitude_deg": NaN,
        "alt_km": NaN,
        "orbit_class": "HEO",
        "timestamp": "2025-11-30T09:33:02.587054+00:00"
      },
      "geometry": {
        "type": "Point",
        "coordinates": [
          NaN,
          NaN
        ]
      }
    }
  ]
}